[{"OBJECT_NAME":"JY1SAT (JO-97)","OBJECT_ID":"2018-099AX","EPOCH":"2026-03-09T16:28:19.890048","MEAN_MOTION":15.30302629,"ECCENTRICITY":0.00047232,"INCLINATION":97.4249,"RA_OF_ASC_NODE":131.3625,"ARG_OF_PERICENTER":256.6795,"MEAN_ANOMALY":103.3919,"EPHEMERIS_TYPE":0,"CLASSIFICATION_TYPE":"U","NORAD_CAT_ID":43803,"ELEMENT_SET_NO":999,"REV_AT_EPOCH":39839,"BSTAR":0.00060804308,"MEAN_MOTION_DOT":0.00017774,"MEAN_MOTION_DDOT":0},{"OBJECT_NAME":"STARLINK-32837","OBJECT_ID":"2025-018G","EPOCH":"2026-03-09T23:18:25.622496","MEAN_MOTION":15.30197311,"ECCENTRICITY":0.00017826,"INCLINATION":53.16,"RA_OF_ASC_NODE":308.1474,"ARG_OF_PERICENTER":168.9853,"MEAN_ANOMALY":191.1188,"EPHEMERIS_TYPE":0,"CLASSIFICATION_TYPE":"U","NORAD_CAT_ID":62812,"ELEMENT_SET_NO":999,"REV_AT_EPOCH":6322,"BSTAR":0.00035972158,"MEAN_MOTION_DOT":0.00010309,"MEAN_MOTION_DDOT":0}]
